IRIDIUM 126             
1 42809U 17039G   24158.48605085  .00000209  00000+0  67590-4 0  9990
2 42809  86.3949 303.1756 0002045  89.1427 271.0003 14.34218903363786
IRIDIUM 124             
1 42810U 17039H   24158.46046923  .00000715  00000+0  20653-3 0  9990
2 42810  86.4511 239.9065 0002443 105.0908 255.0564 14.43277996368277
IRIDIUM 128             
1 42811U 17039J   24158.47678394  .00000105  00000+0  30523-4 0  9996
2 42811  86.3959 334.7099 0002022  95.3129 264.8297 14.34216695363818
IRIDIUM 121             
1 42812U 17039K   24158.50507814  .00000038  00000+0  63505-5 0  9991
2 42812  86.3949 303.1903 0002231  94.7579 265.3871 14.34218292363668
IRIDIUM 133             
1 42955U 17061A   24158.50850058  .00000170  00000+0  53764-4 0  9997
2 42955  86.3961 334.7960 0002057  88.3234 271.8197 14.34217235348613
IRIDIUM 100             
1 42956U 17061B   24158.50215075  .00000421  00000+0  14320-3 0  9995
2 42956  86.3958 334.7346 0002029  87.3204 272.8224 14.34218831348618
IRIDIUM 122             
1 42957U 17061C   24158.47043778  .00000013  00000+0 -22998-5 0  9991
2 42957  86.3957 334.7461 0002078  89.6994 270.4439 14.34215910348618
IRIDIUM 129             
1 42958U 17061D   24158.49581431  .00000110  00000+0  32290-4 0  9999
2 42958  86.3960 334.7948 0001928  88.4035 271.7382 14.34216874348632
